[{"OBJECT_NAME":"STARLINK-33613","OBJECT_ID":"2025-053X","EPOCH":"2026-03-09T12:11:06.722016","MEAN_MOTION":15.27620712,"ECCENTRICITY":0.00013561,"INCLINATION":42.9944,"RA_OF_ASC_NODE":242.9737,"ARG_OF_PERICENTER":287.6156,"MEAN_ANOMALY":72.4548,"EPHEMERIS_TYPE":0,"CLASSIFICATION_TYPE":"U","NORAD_CAT_ID":63286,"ELEMENT_SET_NO":999,"REV_AT_EPOCH":5616,"BSTAR":0.00092726252,"MEAN_MOTION_DOT":0.00025374,"MEAN_MOTION_DDOT":0},{"OBJECT_NAME":"TRANSPORTER-1 OBJECT Z","OBJECT_ID":"2021-006Z","EPOCH":"2026-03-09T22:55:57.522432","MEAN_MOTION":15.30965056,"ECCENTRICITY":0.00100878,"INCLINATION":97.2377,"RA_OF_ASC_NODE":113.4736,"ARG_OF_PERICENTER":179.6869,"MEAN_ANOMALY":180.438,"EPHEMERIS_TYPE":0,"CLASSIFICATION_TYPE":"U","NORAD_CAT_ID":47436,"ELEMENT_SET_NO":999,"REV_AT_EPOCH":28420,"BSTAR":0.00024088983,"MEAN_MOTION_DOT":7.143e-5,"MEAN_MOTION_DDOT":0}]
